QIANFAN-81              
1 63167U 25046J   25365.30102426  .00000246  00000+0  36175-3 0  9995
2 63167  88.9779 317.9519 0016733  68.2099 292.0831 13.51009329 49991
QIANFAN-82              
1 63168U 25046K   25365.26138244  .00000268  00000+0  39615-3 0  9994
2 63168  88.9779 318.0000 0014893  75.2431 285.0370 13.50982347 49979
QIANFAN-83              
1 63169U 25046L   25365.28598889  .00000279  00000+0  34555-3 0  9992
2 63169  88.9780 317.7374 0016136  61.5486 298.7295 13.61981985 50127
QIANFAN-84              
1 63170U 25046M   25365.28904190  .00000239  00000+0  35105-3 0  9998
2 63170  88.9779 318.1297 0017859  72.0274 288.2822 13.50992447 49908
QIANFAN-85              
1 63171U 25046N   25365.28593392  .00000259  00000+0  38230-3 0  9991
2 63171  88.9779 318.0017 0015244  74.0998 286.1832 13.50983311 49974
QIANFAN-86              
1 63172U 25046P   25365.29426624  .00000257  00000+0  37928-3 0  9997
2 63172  88.9781 317.8635 0013121  77.7711 282.4908 13.50982946 50053
QIANFAN-87              
1 63173U 25046Q   25365.19156203  .00000272  00000+0  40242-3 0  9990
2 63173  88.9777 317.9850 0013774  74.0577 286.2091 13.50980377 49973
QIANFAN-88              
1 63174U 25046R   25365.28186868  .00000262  00000+0  38738-3 0  9997
2 63174  88.9780 317.9307 0014170  80.6562 279.6191 13.50987064 50017
